STARLINK-31156          
1 58743U 24005R   26068.45950290  .00000176  00000+0  16221-4 0  9993
2 58743  42.9990 220.6172 0001002 291.5066  68.5679 15.26738284120464
PELICAN-6               
1 66703U 25276AP  26068.70709364  .00077979  00000+0  29726-2 0  9998
2 66703  97.4276 144.2072 0003569 157.8575 202.2819 15.26377980 15334
